 2001 0101 0013  1.1 LE 67.871  20.119  0.0  HEL  5 0.4 2.2LHEL                1
 GAP=            0.4     1.200   2.800                                         5
 CSS:2001001001230.WFDISC                                                      6
 STAT SP IPHASW D HRMM SECON CODA AMPLIT PERI AZIMU VELO SNR AR TRES W  DIS CAZ7
 KEV  BZ EP       0013 51.72                                     0.010  349  50 
 KEV  BZ ES       0014 29.36                                     0.6 5          
 OUL  SZ EPB      0014  3.19                                     0.0 9  404 138 
 OUL  SZ ES       0014 42.40                                     1.8 0          
 MSF  SZ EP       0014  3.66                                    -0.5 7  448 115 
 MSF  SZ ESG      0015  5.02                                     0.1 5          
 KJN  SZ ES       0015 10.95                                    -0.2 4  545 137 
 KJN  SZ  MSN     0015 12.32        0.70 0.42                                   
 VAF  BZ ES       0015 13.46                                     0.8 4  552 166 

