<q:quakeml xmlns:q="http://quakeml.org/xmlns/quakeml/1.2" xmlns="http://quakeml.org/xmlns/bed/1.2" xmlns:ingv="http://webservices.ingv.it/fdsnws/event/1">
  <eventParameters publicID="smi:wh.atis.ids/path/to/event/parameter">
    <event publicID="smi:wh.atis.ids/path/to/event/">
      <type>explosion</type>
      <origin publicID="smi:wh.atis.ids/path/to/origin">
        <time>
          <value>2001-01-01T00:13:01Z</value>
        </time>
        <latitude>
          <value>67.871</value>
        </latitude>
        <longitude>
          <value>20.119</value>
        </longitude>
        <depth>
          <value>0.0</value>
        </depth>
        <quality>
          <standardError>0.4</standardError>
        </quality>
        <arrival publicID="smi:wh.atis.ids/path/to/arrival/1">
          <pickID>smi:wh.atis.ids/path/to/pick/1</pickID>
          <phase>P</phase>
          <azimuth>50</azimuth>
          <timeResidual>0.0</timeResidual>
          <distance>349</distance>
        </arrival>
        <arrival publicID="smi:wh.atis.ids/path/to/arrival/2">
          <pickID>smi:wh.atis.ids/path/to/pick/2</pickID>
          <phase>S</phase>
          <timeResidual>0.6</timeResidual>
        </arrival>
        <arrival publicID="smi:wh.atis.ids/path/to/arrival/3">
          <pickID>smi:wh.atis.ids/path/to/pick/3</pickID>
          <phase>PB</phase>
          <azimuth>138</azimuth>
          <timeResidual>0.0</timeResidual>
          <distance>404</distance>
        </arrival>
        <arrival publicID="smi:wh.atis.ids/path/to/arrival/4">
          <pickID>smi:wh.atis.ids/path/to/pick/4</pickID>
          <phase>S</phase>
          <timeResidual>1.8</timeResidual>
        </arrival>
        <arrival publicID="smi:wh.atis.ids/path/to/arrival/5">
          <pickID>smi:wh.atis.ids/path/to/pick/5</pickID>
          <phase>P</phase>
          <azimuth>115</azimuth>
          <timeResidual>-0.5</timeResidual>
          <distance>448</distance>
        </arrival>
        <arrival publicID="smi:wh.atis.ids/path/to/arrival/6">
          <pickID>smi:wh.atis.ids/path/to/pick/6</pickID>
          <phase>SG</phase>
          <timeResidual>0.1</timeResidual>
        </arrival>
        <arrival publicID="smi:wh.atis.ids/path/to/arrival/7">
          <pickID>smi:wh.atis.ids/path/to/pick/7</pickID>
          <phase>S</phase>
          <azimuth>137</azimuth>
          <timeResidual>-0.2</timeResidual>
          <distance>545</distance>
        </arrival>
        <arrival publicID="smi:wh.atis.ids/path/to/arrival/8">
          <pickID>smi:wh.atis.ids/path/to/pick/8</pickID>
          <phase>MSN</phase>
        </arrival>
        <arrival publicID="smi:wh.atis.ids/path/to/arrival/9">
          <pickID>smi:wh.atis.ids/path/to/pick/9</pickID>
          <phase>S</phase>
          <azimuth>166</azimuth>
          <timeResidual>0.8</timeResidual>
          <distance>552</distance>
        </arrival>
      </origin>
      <magnitude publicID="smi:wh.atis.ids/path/to/magnitude">
        <mag>
          <value>2.2</value>
        </mag>
        <type>ML</type>
        <stationCount>5</stationCount>
        <creationInfo>
          <agencyID>HEL</agencyID>
          <agencyURI>smi:wh.atis.ids/path/to/agency</agencyURI>
        </creationInfo>
        <originID>smi:wh.atis.ids/path/to/origin</originID>
      </magnitude>
      <pick publicID="smi:wh.atis.ids/path/to/pick/1">
        <time>
          <value>2001-01-01T00:13:51Z</value>
        </time>
        <waveformID networkCode="netcode" stationCode="KEV" channelCode="BHZ"/>
      </pick>
      <pick publicID="smi:wh.atis.ids/path/to/pick/2">
        <time>
          <value>2001-01-01T00:14:29Z</value>
        </time>
        <waveformID networkCode="netcode" stationCode="KEV" channelCode="BHZ"/>
      </pick>
      <pick publicID="smi:wh.atis.ids/path/to/pick/3">
        <time>
          <value>2001-01-01T00:14:03Z</value>
        </time>
        <waveformID networkCode="netcode" stationCode="OUL" channelCode="SHZ"/>
      </pick>
      <pick publicID="smi:wh.atis.ids/path/to/pick/4">
        <time>
          <value>2001-01-01T00:14:42Z</value>
        </time>
        <waveformID networkCode="netcode" stationCode="OUL" channelCode="SHZ"/>
      </pick>
      <pick publicID="smi:wh.atis.ids/path/to/pick/5">
        <time>
          <value>2001-01-01T00:14:03Z</value>
        </time>
        <waveformID networkCode="netcode" stationCode="MSF" channelCode="SHZ"/>
      </pick>
      <pick publicID="smi:wh.atis.ids/path/to/pick/6">
        <time>
          <value>2001-01-01T00:15:05Z</value>
        </time>
        <waveformID networkCode="netcode" stationCode="MSF" channelCode="SHZ"/>
      </pick>
      <pick publicID="smi:wh.atis.ids/path/to/pick/7">
        <time>
          <value>2001-01-01T00:15:10Z</value>
        </time>
        <waveformID networkCode="netcode" stationCode="KJN" channelCode="SHZ"/>
      </pick>
      <pick publicID="smi:wh.atis.ids/path/to/pick/8">
        <time>
          <value>2001-01-01T00:15:12Z</value>
        </time>
        <waveformID networkCode="netcode" stationCode="KJN" channelCode="SHZ"/>
      </pick>
      <amplitude publicID="smi:wh.atis.ids/path/to/amplitude/8">
        <genericAmplitude>
          <value>24.780932222490062</value>
        </genericAmplitude>
        <period>
          <value>0.42</value>
        </period>
        <unit>m</unit>
      </amplitude>
      <pick publicID="smi:wh.atis.ids/path/to/pick/9">
        <time>
          <value>2001-01-01T00:15:13Z</value>
        </time>
        <waveformID networkCode="netcode" stationCode="VAF" channelCode="BHZ"/>
      </pick>
    </event>
  </eventParameters>
</q:quakeml>
