<seiscomp xmlns="http://geofon.gfz-potsdam.de/ns/seiscomp3-schema/0.9">
  <EventParameters publicID="smi:wh.atis.ids/eventParameter">
    <pick publicID="smi:wh.atis.ids/path/to/pick/26">
      <time>
        <value>2017-07-30T03:19:39Z</value>
      </time>
      <waveformID networkCode="netcode" stationCode="SGF" channelCode="BHZ"/>
    </pick>
    <pick publicID="smi:wh.atis.ids/path/to/pick/27">
      <time>
        <value>2017-07-30T03:19:48Z</value>
      </time>
      <waveformID networkCode="netcode" stationCode="SGF" channelCode="BHZ"/>
    </pick>
    <pick publicID="smi:wh.atis.ids/path/to/pick/28">
      <time>
        <value>2017-07-30T03:19:42Z</value>
      </time>
      <waveformID networkCode="netcode" stationCode="HEF" channelCode="BHZ"/>
      <backazimuth>
        <value>121.0</value>
      </backazimuth>
    </pick>
    <pick publicID="smi:wh.atis.ids/path/to/pick/29">
      <time>
        <value>2017-07-30T03:19:52Z</value>
      </time>
      <waveformID networkCode="netcode" stationCode="HEF" channelCode="BHZ"/>
    </pick>
    <pick publicID="smi:wh.atis.ids/path/to/pick/30">
      <time>
        <value>2017-07-30T03:19:51Z</value>
      </time>
      <waveformID networkCode="netcode" stationCode="HEF" channelCode="BHZ"/>
    </pick>
    <pick publicID="smi:wh.atis.ids/path/to/pick/31">
      <time>
        <value>2017-07-30T03:19:44Z</value>
      </time>
      <waveformID networkCode="netcode" stationCode="KLF" channelCode="BHZ"/>
      <backazimuth>
        <value>41.0</value>
      </backazimuth>
    </pick>
    <pick publicID="smi:wh.atis.ids/path/to/pick/32">
      <time>
        <value>2017-07-30T03:19:55Z</value>
      </time>
      <waveformID networkCode="netcode" stationCode="KLF" channelCode="BHZ"/>
    </pick>
    <pick publicID="smi:wh.atis.ids/path/to/pick/33">
      <time>
        <value>2017-07-30T03:19:52Z</value>
      </time>
      <waveformID networkCode="netcode" stationCode="KLF" channelCode="BHZ"/>
    </pick>
    <pick publicID="smi:wh.atis.ids/path/to/pick/34">
      <time>
        <value>2017-07-30T03:19:50Z</value>
      </time>
      <waveformID networkCode="netcode" stationCode="PAJU" channelCode="BHZ"/>
    </pick>
    <pick publicID="smi:wh.atis.ids/path/to/pick/35">
      <time>
        <value>2017-07-30T03:20:12Z</value>
      </time>
      <waveformID networkCode="netcode" stationCode="PAJU" channelCode="BHZ"/>
    </pick>
    <pick publicID="smi:wh.atis.ids/path/to/pick/36">
      <time>
        <value>2017-07-30T03:19:51Z</value>
      </time>
      <waveformID networkCode="netcode" stationCode="LANU" channelCode="BHZ"/>
    </pick>
    <pick publicID="smi:wh.atis.ids/path/to/pick/37">
      <time>
        <value>2017-07-30T03:19:52Z</value>
      </time>
      <waveformID networkCode="netcode" stationCode="KTK1" channelCode="BHZ"/>
    </pick>
    <pick publicID="smi:wh.atis.ids/path/to/pick/38">
      <time>
        <value>2017-07-30T03:19:52Z</value>
      </time>
      <waveformID networkCode="netcode" stationCode="RNF" channelCode="BHZ"/>
      <backazimuth>
        <value>351.0</value>
      </backazimuth>
    </pick>
    <pick publicID="smi:wh.atis.ids/path/to/pick/39">
      <time>
        <value>2017-07-30T03:19:57Z</value>
      </time>
      <waveformID networkCode="netcode" stationCode="ARA0" channelCode="BHZ"/>
      <backazimuth>
        <value>183.2</value>
      </backazimuth>
    </pick>
    <pick publicID="smi:wh.atis.ids/path/to/pick/40">
      <time>
        <value>2017-07-30T03:20:01Z</value>
      </time>
      <waveformID networkCode="netcode" stationCode="ERTU" channelCode="BHZ"/>
    </pick>
    <amplitude publicID="smi:wh.atis.ids/path/to/amplitude/29">
      <type/>
      <amplitude>
        <value>1.0</value>
      </amplitude>
      <period>
        <value>0.17</value>
      </period>
      <unit>m</unit>
    </amplitude>
    <amplitude publicID="smi:wh.atis.ids/path/to/amplitude/32">
      <type/>
      <amplitude>
        <value>24.780932222490062</value>
      </amplitude>
      <period>
        <value>0.17</value>
      </period>
      <unit>m</unit>
    </amplitude>
    <origin publicID="smi:wh.atis.ids/path/to/origin">
      <time>
        <value>2017-07-30T03:19:27Z</value>
      </time>
      <latitude>
        <value>67.954</value>
      </latitude>
      <longitude>
        <value>25.406</value>
      </longitude>
      <depth>
        <value>0</value>
      </depth>
      <quality>
        <standardError>0.4</standardError>
      </quality>
      <arrival>
        <pickID>smi:wh.atis.ids/path/to/pick/26</pickID>
        <phase>Pg</phase>
        <azimuth>140</azimuth>
        <distance>74</distance>
        <timeResidual>-0.2</timeResidual>
      </arrival>
      <arrival>
        <pickID>smi:wh.atis.ids/path/to/pick/27</pickID>
        <phase>Sg</phase>
        <azimuth>140</azimuth>
        <distance>74</distance>
        <timeResidual>0.4</timeResidual>
      </arrival>
      <arrival>
        <pickID>smi:wh.atis.ids/path/to/pick/28</pickID>
        <phase>Pg</phase>
        <azimuth>306</azimuth>
        <distance>88</distance>
        <timeResidual>0.4</timeResidual>
      </arrival>
      <arrival>
        <pickID>smi:wh.atis.ids/path/to/pick/29</pickID>
        <phase>MSG</phase>
      </arrival>
      <arrival>
        <pickID>smi:wh.atis.ids/path/to/pick/30</pickID>
        <phase>Sg</phase>
        <azimuth>306</azimuth>
        <distance>88</distance>
        <timeResidual>-0.8</timeResidual>
      </arrival>
      <arrival>
        <pickID>smi:wh.atis.ids/path/to/pick/31</pickID>
        <phase>Pg</phase>
        <azimuth>218</azimuth>
        <distance>101</distance>
        <timeResidual>-0.1</timeResidual>
      </arrival>
      <arrival>
        <pickID>smi:wh.atis.ids/path/to/pick/32</pickID>
        <phase>MSG</phase>
      </arrival>
      <arrival>
        <pickID>smi:wh.atis.ids/path/to/pick/33</pickID>
        <phase>Sg</phase>
        <azimuth>218</azimuth>
        <distance>101</distance>
        <timeResidual>-3.2</timeResidual>
      </arrival>
      <arrival>
        <pickID>smi:wh.atis.ids/path/to/pick/34</pickID>
        <phase>Pg</phase>
        <azimuth>224</azimuth>
        <distance>143</distance>
        <timeResidual>-0.2</timeResidual>
      </arrival>
      <arrival>
        <pickID>smi:wh.atis.ids/path/to/pick/35</pickID>
        <phase>Sn</phase>
        <azimuth>224</azimuth>
        <distance>143</distance>
        <timeResidual>1.8</timeResidual>
      </arrival>
      <arrival>
        <pickID>smi:wh.atis.ids/path/to/pick/36</pickID>
        <phase>Pg</phase>
        <azimuth>276</azimuth>
        <distance>143</distance>
        <timeResidual>0.4</timeResidual>
      </arrival>
      <arrival>
        <pickID>smi:wh.atis.ids/path/to/pick/37</pickID>
        <phase>Pn</phase>
        <azimuth>324</azimuth>
        <distance>148</distance>
        <timeResidual>-0.7</timeResidual>
      </arrival>
      <arrival>
        <pickID>smi:wh.atis.ids/path/to/pick/38</pickID>
        <phase>Pg</phase>
        <azimuth>170</azimuth>
        <distance>152</distance>
        <timeResidual>-0.2</timeResidual>
      </arrival>
      <arrival>
        <pickID>smi:wh.atis.ids/path/to/pick/39</pickID>
        <phase>Pn</phase>
        <azimuth>1</azimuth>
        <distance>177</distance>
        <timeResidual>0.6</timeResidual>
      </arrival>
      <arrival>
        <pickID>smi:wh.atis.ids/path/to/pick/40</pickID>
        <phase>Pg</phase>
        <azimuth>223</azimuth>
        <distance>209</distance>
        <timeResidual>0.4</timeResidual>
      </arrival>
      <magnitude publicID="smi:wh.atis.ids/path/to/magnitude">
        <magnitude>
          <value>0.6</value>
          <uncertainty>0.0</uncertainty>
        </magnitude>
        <type>ML</type>
        <originID>smi:wh.atis.ids/path/to/origin</originID>
        <stationCount>9</stationCount>
        <creationInfo>
          <agencyID>HEL</agencyID>
          <agencyURI>smi:wh.atis.ids/path/to/agency</agencyURI>
        </creationInfo>
      </magnitude>
    </origin>
    <focalMechanism publicID="smi:wh.atis.ids/path/to/focalMech">
      <azimuthalGap>138</azimuthalGap>
    </focalMechanism>
    <event publicID="smi:wh.atis.ids/event/">
      <type>other</type>
      <comment>
        <text>FULLY AUTOMATIC LOCATION</text>
      </comment>
      <comment>
        <text>MINING AREA &amp; TIME WINDOW: SUURIKUUSIKKO  5km</text>
      </comment>
      <originReference>smi:wh.atis.ids/path/to/origin</originReference>
      <focalMechanismReference>smi:wh.atis.ids/path/to/focalMech</focalMechanismReference>
    </event>
  </EventParameters>
</seiscomp>
